STARLINK-37508          
1 69257U 26117V   26167.13488817  .00275873  00000+0  13517-2 0  9998
2 69257  53.1580 248.4695 0000624  83.9718 276.1376 15.80958710  2816
STARLINK-37276          
1 69258U 26117W   26167.17115766  .00174130  00000+0  86706-3 0  9998
2 69258  53.1574 247.9685 0001523  46.2412 313.8736 15.80898460  2820
STARLINK-37518          
1 69259U 26117X   26167.17240639  .00124294  00000+0  62564-3 0  9999
2 69259  53.1571 247.9768 0001182  97.6215 262.4942 15.80824465  2824
STARLINK-37478          
1 69260U 26117Y   26167.17261213  .00138918  00000+0  69546-3 0  9997
2 69260  53.1576 247.9793 0000990  67.3159 292.7968 15.80892824  2824
STARLINK-37506          
1 69261U 26117Z   26167.17212286  .00187397  00000+0  93096-3 0  9996
2 69261  53.1571 247.9756 0000942  72.2617 287.8508 15.80909333  2829
STARLINK-37503          
1 69262U 26117AA  26167.17186476  .00151340  00000+0  75630-3 0  9991
2 69262  53.1574 247.9731 0001311  52.7215 307.3927 15.80891057  2820
STARLINK-37502          
1 69263U 26117AB  26167.17135244  .00188249  00000+0  93514-3 0  9998
2 69263  53.1577 247.9699 0001671  40.4474 319.6673 15.80907682  2823
STARLINK-37486          
1 69264U 26117AC  26167.17013381  .00187082  00000+0  92978-3 0  9993
2 69264  53.1569 247.9618 0001242  52.1269 307.9866 15.80901327  2826
STARLINK-37435          
1 69265U 26117AD  26167.17162105  .00198259  00000+0  98500-3 0  9998
2 69265  53.1572 247.9705 0000849  49.7612 310.3485 15.80875538  2823
STARLINK-37464          
1 69266U 26117AE  26167.16788418  .00192311  00000+0  90671-3 0  9993
2 69266  53.1569 247.9449 0001216  60.2629 299.8515 15.82025316  2828
KUIPER-00282            
1 69267U 26118A   26167.04973530  .00007452  00000+0  23027-3 0  9995
2 69267  51.8591  59.0456 0011672 179.4303 180.6697 15.34499383  3801
KUIPER-00383            
1 69268U 26118B   26167.11193003 -.00020464  00000+0 -59276-3 0  9998
2 69268  51.8593  58.7121 0010775 180.2667 179.8315 15.34474570  3814
KUIPER-00527            
1 69269U 26118C   26167.10758125 -.00000331  00000+0  16129-5 0  9992
2 69269  51.8623  58.6875 0009689 173.0811 187.0310 15.34933213  3817
KUIPER-00562            
1 69270U 26118D   26167.14204464  .00021718  00000+0  56933-3 0  9996
2 69270  51.8729  58.1754 0001756 109.5830 250.5347 15.38608437  3827
KUIPER-00570            
1 69271U 26118E   26167.10973353  .00003302  00000+0  10788-3 0  9990
2 69271  51.8578  58.6975 0011995 180.8069 179.2899 15.34651939  3811
KUIPER-00572            
1 69272U 26118F   26167.16021899  .00023152  00000+0  63817-3 0  9992
2 69272  51.8686  58.2985 0007074 167.3346 192.7819 15.36994897  3828
KUIPER-00581            
1 69273U 26118G   26167.16390703  .00018613  00000+0  52136-3 0  9994
2 69273  51.8665  58.3205 0008818 171.3739 188.7401 15.36626720  3919
KUIPER-00584            
1 69274U 26118H   26167.11190972  .00006294  00000+0  19585-3 0  9999
2 69274  51.8607  58.7138 0011779 183.9580 176.1314 15.34571389  3819
KUIPER-00587            
1 69275U 26118J   26167.16329054  .00019008  00000+0  53147-3 0  9999
2 69275  51.8639  58.3145 0008102 174.6860 185.4213 15.36673512  3828
KUIPER-00590            
1 69276U 26118K   26167.08531543  .00018077  00000+0  48680-3 0  9990
2 69276  51.8697  58.5482 0004119 154.8723 205.2465 15.37898804  3814
KUIPER-00592            
1 69277U 26118L   26167.14789947  .00017968  00000+0  48119-3 0  9996
2 69277  51.8718  58.2175 0003579 128.4393 231.6915 15.38076830  3826
KUIPER-00593            
1 69278U 26118M   26167.14858736  .00017840  00000+0  47846-3 0  9995
2 69278  51.8723  58.2209 0003851 151.2856 208.8343 15.38035402  3889
KUIPER-00594            
1 69279U 26118N   26167.14089921  .00018730  00000+0  49201-3 0  9994
2 69279  51.8725  58.1701 0001043  80.7899 279.3206 15.38645248  3822
KUIPER-00595            
1 69280U 26118P   26167.14301721  .00018231  00000+0  48074-3 0  9994
2 69280  51.8722  58.1867 0001717 135.2070 224.9056 15.38545535  3859
KUIPER-00596            
1 69281U 26118Q   26167.04538914  .00016595  00000+0  49532-3 0  9991
2 69281  51.8557  59.0133 0012601 180.7056 179.3914 15.34679512  3805
KUIPER-00597            
1 69282U 26118R   26167.15856028  .00019990  00000+0  55233-3 0  9990
2 69282  51.8663  58.2867 0006902 168.2514 191.8635 15.37017171  3827
KUIPER-00599            
1 69283U 26118S   26167.15588947  .00022979  00000+0  62591-3 0  9999
2 69283  51.8705  58.2713 0006006 160.0934 200.0288 15.37375393  3826
KUIPER-00600            
1 69284U 26118T   26167.16258056  .00018503  00000+0  51679-3 0  9999
2 69284  51.8652  58.3109 0008792 170.5271 189.5882 15.36721083  3823
KUIPER-00601            
1 69285U 26118U   26167.08763207  .00018012  00000+0  48910-3 0  9999
2 69285  51.8717  58.5634 0004580 150.2104 209.9144 15.37642246  3813
KUIPER-00602            
1 69286U 26118V   26167.08212373  .00017819  00000+0  47594-3 0  9994
2 69286  51.8711  58.5277 0002881 141.8239 218.2953 15.38165887  3811
