OBJECT_NAME,OBJECT_ID,EPOCH,MEAN_MOTION,ECCENTRICITY,INCLINATION,RA_OF_ASC_NODE,ARG_OF_PERICENTER,MEAN_ANOMALY,EPHEMERIS_TYPE,CLASSIFICATION_TYPE,NORAD_CAT_ID,ELEMENT_SET_NO,REV_AT_EPOCH,BSTAR,MEAN_MOTION_DOT,MEAN_MOTION_DDOT
STARLINK-37508,2026-117V,2026-06-16T03:14:14.337888,15.80958710,.0000624,53.1580,248.4695,83.9718,276.1376,0,U,69257,999,281,.13517E-2,.275873E-2,0
STARLINK-37276,2026-117W,2026-06-16T04:06:28.021824,15.80898460,.0001523,53.1574,247.9685,46.2412,313.8736,0,U,69258,999,282,.86706E-3,.17413E-2,0
STARLINK-37518,2026-117X,2026-06-16T04:08:15.912096,15.80824465,.0001182,53.1571,247.9768,97.6215,262.4942,0,U,69259,999,282,.62564E-3,.124294E-2,0
STARLINK-37478,2026-117Y,2026-06-16T04:08:33.688032,15.80892824,.000099,53.1576,247.9793,67.3159,292.7968,0,U,69260,999,282,.69546E-3,.138918E-2,0
STARLINK-37506,2026-117Z,2026-06-16T04:07:51.415104,15.80909333,.0000942,53.1571,247.9756,72.2617,287.8508,0,U,69261,999,282,.93096E-3,.187397E-2,0
STARLINK-37503,2026-117AA,2026-06-16T04:07:29.115264,15.80891057,.0001311,53.1574,247.9731,52.7215,307.3927,0,U,69262,999,282,.7563E-3,.15134E-2,0
STARLINK-37502,2026-117AB,2026-06-16T04:06:44.850816,15.80907682,.0001671,53.1577,247.9699,40.4474,319.6673,0,U,69263,999,282,.93514E-3,.188249E-2,0
STARLINK-37486,2026-117AC,2026-06-16T04:04:59.561184,15.80901327,.0001242,53.1569,247.9618,52.1269,307.9866,0,U,69264,999,282,.92978E-3,.187082E-2,0
STARLINK-37435,2026-117AD,2026-06-16T04:07:08.058720,15.80875538,.0000849,53.1572,247.9705,49.7612,310.3485,0,U,69265,999,282,.985E-3,.198259E-2,0
STARLINK-37464,2026-117AE,2026-06-16T04:01:45.193152,15.82025316,.0001216,53.1569,247.9449,60.2629,299.8515,0,U,69266,999,282,.90671E-3,.192311E-2,0
KUIPER-00282,2026-118A,2026-06-16T01:11:37.129920,15.34499383,.0011672,51.8591,59.0456,179.4303,180.6697,0,U,69267,999,380,.23027E-3,.7452E-4,0
KUIPER-00383,2026-118B,2026-06-16T02:41:10.754592,15.34474570,.0010775,51.8593,58.7121,180.2667,179.8315,0,U,69268,999,381,-.59276E-3,-.20464E-3,0
KUIPER-00527,2026-118C,2026-06-16T02:34:55.020000,15.34933213,.0009689,51.8623,58.6875,173.0811,187.0310,0,U,69269,999,381,.16129E-5,-.331E-5,0
KUIPER-00562,2026-118D,2026-06-16T03:24:32.656896,15.38608437,.0001756,51.8729,58.1754,109.5830,250.5347,0,U,69270,999,382,.56933E-3,.21718E-3,0
KUIPER-00570,2026-118E,2026-06-16T02:38:00.976992,15.34651939,.0011995,51.8578,58.6975,180.8069,179.2899,0,U,69271,999,381,.10788E-3,.3302E-4,0
KUIPER-00572,2026-118F,2026-06-16T03:50:42.920736,15.36994897,.0007074,51.8686,58.2985,167.3346,192.7819,0,U,69272,999,382,.63817E-3,.23152E-3,0
KUIPER-00581,2026-118G,2026-06-16T03:56:01.567392,15.36626720,.0008818,51.8665,58.3205,171.3739,188.7401,0,U,69273,999,391,.52136E-3,.18613E-3,0
KUIPER-00584,2026-118H,2026-06-16T02:41:08.999808,15.34571389,.0011779,51.8607,58.7138,183.9580,176.1314,0,U,69274,999,381,.19585E-3,.6294E-4,0
KUIPER-00587,2026-118J,2026-06-16T03:55:08.302656,15.36673512,.0008102,51.8639,58.3145,174.6860,185.4213,0,U,69275,999,382,.53147E-3,.19008E-3,0
KUIPER-00590,2026-118K,2026-06-16T02:02:51.253152,15.37898804,.0004119,51.8697,58.5482,154.8723,205.2465,0,U,69276,999,381,.4868E-3,.18077E-3,0
KUIPER-00592,2026-118L,2026-06-16T03:32:58.514208,15.38076830,.0003579,51.8718,58.2175,128.4393,231.6915,0,U,69277,999,382,.48119E-3,.17968E-3,0
KUIPER-00593,2026-118M,2026-06-16T03:33:57.947904,15.38035402,.0003851,51.8723,58.2209,151.2856,208.8343,0,U,69278,999,388,.47846E-3,.1784E-3,0
KUIPER-00594,2026-118N,2026-06-16T03:22:53.691744,15.38645248,.0001043,51.8725,58.1701,80.7899,279.3206,0,U,69279,999,382,.49201E-3,.1873E-3,0
KUIPER-00595,2026-118P,2026-06-16T03:25:56.686944,15.38545535,.0001717,51.8722,58.1867,135.2070,224.9056,0,U,69280,999,385,.48074E-3,.18231E-3,0
KUIPER-00596,2026-118Q,2026-06-16T01:05:21.621696,15.34679512,.0012601,51.8557,59.0133,180.7056,179.3914,0,U,69281,999,380,.49532E-3,.16595E-3,0
KUIPER-00597,2026-118R,2026-06-16T03:48:19.608192,15.37017171,.0006902,51.8663,58.2867,168.2514,191.8635,0,U,69282,999,382,.55233E-3,.1999E-3,0
KUIPER-00599,2026-118S,2026-06-16T03:44:28.850208,15.37375393,.0006006,51.8705,58.2713,160.0934,200.0288,0,U,69283,999,382,.62591E-3,.22979E-3,0
KUIPER-00600,2026-118T,2026-06-16T03:54:06.960384,15.36721083,.0008792,51.8652,58.3109,170.5271,189.5882,0,U,69284,999,382,.51679E-3,.18503E-3,0
KUIPER-00601,2026-118U,2026-06-16T02:06:11.410848,15.37642246,.000458,51.8717,58.5634,150.2104,209.9144,0,U,69285,999,381,.4891E-3,.18012E-3,0
KUIPER-00602,2026-118V,2026-06-16T01:58:15.490272,15.38165887,.0002881,51.8711,58.5277,141.8239,218.2953,0,U,69286,999,381,.47594E-3,.17819E-3,0
